start=new Date('2023-03-10T00:00:00.000Z').valueOf();
sats=[{"OBJECT_NAME":"STARLINK-1564","APOAPSIS":"547.980","EPHEMERIS_TYPE":"0","MEAN_MOTION":"15.06405247","FILE":"3855951","EPOCH":"2023-03-09T19:07:30.742176","PERIAPSIS":"546.415","BSTAR":"0.00365680000000","INCLINATION":"53.0557","TIME_SYSTEM":"UTC","CLASSIFICATION_TYPE":"U","ECCENTRICITY":"0.00011300","SITE":"AFETR","TLE_LINE1":"1 46058U 20055AH  23068.79688359  .00054617  00000-0  36568-2 0  9992","SEMIMAJOR_AXIS":"6925.332","REF_FRAME":"TEME","TLE_LINE2":"2 46058  53.0557 356.2724 0001130  68.5290 291.5819 15.06405247143854","GP_ID":"227765219","OBJECT_TYPE":"PAYLOAD","DECAY_DATE":null,"ELEMENT_SET_NO":"999","MEAN_MOTION_DDOT":"0.0000000000000","NORAD_CAT_ID":"46058","MEAN_ANOMALY":"291.5819","ARG_OF_PERICENTER":"68.5290","CENTER_NAME":"EARTH","OBJECT_ID":"2020-055AH","PERIOD":"95.592","MEAN_ELEMENT_THEORY":"SGP4","LAUNCH_DATE":"2020-08-07","REV_AT_EPOCH":"14385","COUNTRY_CODE":"US","RCS_SIZE":"LARGE","RA_OF_ASC_NODE":"356.2724","MEAN_MOTION_DOT":"0.00054617"},{"PERIOD":"95.586","MEAN_ELEMENT_THEORY":"SGP4","LAUNCH_DATE":"2020-08-07","REV_AT_EPOCH":"14370","COUNTRY_CODE":"US","RCS_SIZE":"LARGE","RA_OF_ASC_NODE":"359.5156","MEAN_MOTION_DOT":"0.00029503","DECAY_DATE":null,"ELEMENT_SET_NO":"999","MEAN_MOTION_DDOT":"0.0000000000000","NORAD_CAT_ID":"46059","MEAN_ANOMALY":"288.7164","ARG_OF_PERICENTER":"71.3940","CENTER_NAME":"EARTH","OBJECT_ID":"2020-055AJ","ECCENTRICITY":"0.00010670","SITE":"AFETR","TLE_LINE1":"1 46059U 20055AJ  23068.07437208  .00029503  00000-0  19858-2 0  9998","SEMIMAJOR_AXIS":"6925.037","REF_FRAME":"TEME","TLE_LINE2":"2 46059  53.0530 359.5156 0001067  71.3940 288.7164 15.06501610143700","GP_ID":"227765973","OBJECT_TYPE":"PAYLOAD","OBJECT_NAME":"STARLINK-1570","APOAPSIS":"547.641","EPHEMERIS_TYPE":"0","MEAN_MOTION":"15.06501610","FILE":"3855951","PERIAPSIS":"546.163","EPOCH":"2023-03-09T01:47:05.747712","BSTAR":"0.00198580000000","INCLINATION":"53.0530","CLASSIFICATION_TYPE":"U","TIME_SYSTEM":"UTC"},{"MEAN_ELEMENT_THEORY":"SGP4","PERIOD":"95.592","REV_AT_EPOCH":"14384","LAUNCH_DATE":"2020-08-07","COUNTRY_CODE":"US","RCS_SIZE":"LARGE","MEAN_MOTION_DOT":"0.00008163","RA_OF_ASC_NODE":"355.6608","DECAY_DATE":null,"NORAD_CAT_ID":"46060","MEAN_MOTION_DDOT":"0.0000000000000","ELEMENT_SET_NO":"999","MEAN_ANOMALY":"265.2919","ARG_OF_PERICENTER":"94.8212","CENTER_NAME":"EARTH","OBJECT_ID":"2020-055AK","ECCENTRICITY":"0.00012460","SITE":"AFETR","TLE_LINE1":"1 46060U 20055AK  23068.93325605  .00008163  00000-0  56614-3 0  9993","SEMIMAJOR_AXIS":"6925.324","REF_FRAME":"TEME","GP_ID":"227764725","TLE_LINE2":"2 46060  53.0557 355.6608 0001246  94.8212 265.2919 15.06408079143849","OBJECT_TYPE":"PAYLOAD","OBJECT_NAME":"STARLINK-1572","APOAPSIS":"548.052","FILE":"3855951","MEAN_MOTION":"15.06408079","EPHEMERIS_TYPE":"0","EPOCH":"2023-03-09T22:23:53.322720","PERIAPSIS":"546.326","BSTAR":"0.00056614000000","INCLINATION":"53.0557","CLASSIFICATION_TYPE":"U","TIME_SYSTEM":"UTC"},{"RCS_SIZE":"LARGE","RA_OF_ASC_NODE":"359.2735","MEAN_MOTION_DOT":"0.00017293","PERIOD":"95.591","MEAN_ELEMENT_THEORY":"SGP4","REV_AT_EPOCH":"14375","LAUNCH_DATE":"2020-08-07","COUNTRY_CODE":"US","MEAN_ANOMALY":"272.7489","ARG_OF_PERICENTER":"87.3627","CENTER_NAME":"EARTH","OBJECT_ID":"2020-055AL","DECAY_DATE":null,"ELEMENT_SET_NO":"999","MEAN_MOTION_DDOT":"0.0000000000000","NORAD_CAT_ID":"46061","REF_FRAME":"TEME","TLE_LINE2":"2 46061  53.0541 359.2735 0001102  87.3627 272.7489 15.06412212143751","GP_ID":"227764974","OBJECT_TYPE":"PAYLOAD","ECCENTRICITY":"0.00011020","SITE":"AFETR","SEMIMAJOR_AXIS":"6925.311","TLE_LINE1":"1 46061U 20055AL  23068.12972581  .00017293  00000-0  11766-2 0  9998","PERIAPSIS":"546.413","EPOCH":"2023-03-09T03:06:48.309984","BSTAR":"0.00117660000000","INCLINATION":"53.0541","TIME_SYSTEM":"UTC","CLASSIFICATION_TYPE":"U","OBJECT_NAME":"STARLINK-1573","APOAPSIS":"547.939","EPHEMERIS_TYPE":"0","FILE":"3855951","MEAN_MOTION":"15.06412212"},{"RCS_SIZE":"LARGE","RA_OF_ASC_NODE":"356.4380","MEAN_MOTION_DOT":"-0.00002603","MEAN_ELEMENT_THEORY":"SGP4","PERIOD":"95.594","LAUNCH_DATE":"2020-08-07","REV_AT_EPOCH":"14381","COUNTRY_CODE":"US","MEAN_ANOMALY":"276.8183","ARG_OF_PERICENTER":"83.2932","CENTER_NAME":"EARTH","OBJECT_ID":"2020-055AM","DECAY_DATE":null,"MEAN_MOTION_DDOT":"0.0000000000000","NORAD_CAT_ID":"46062","ELEMENT_SET_NO":"999","REF_FRAME":"TEME","GP_ID":"227765720","TLE_LINE2":"2 46062  53.0563 356.4380 0001114  83.2932 276.8183 15.06375157143817","OBJECT_TYPE":"PAYLOAD","SITE":"AFETR","ECCENTRICITY":"0.00011140","SEMIMAJOR_AXIS":"6925.425","TLE_LINE1":"1 46062U 20055AM  23068.76003103 -.00002603  00000-0 -15602-3 0  9999","EPOCH":"2023-03-09T18:14:26.680992","PERIAPSIS":"546.518","BSTAR":"-0.00015602000000","INCLINATION":"53.0563","TIME_SYSTEM":"UTC","CLASSIFICATION_TYPE":"U","OBJECT_NAME":"STARLINK-1574","APOAPSIS":"548.061","FILE":"3855951","MEAN_MOTION":"15.06375157","EPHEMERIS_TYPE":"0"},{"ECCENTRICITY":"0.00014610","SITE":"AFETR","SEMIMAJOR_AXIS":"6925.268","TLE_LINE1":"1 46063U 20055AN  23068.75633204  .00036264  00000-0  24392-2 0  9993","REF_FRAME":"TEME","GP_ID":"227765474","TLE_LINE2":"2 46063  53.0558 356.4566 0001461  94.8954 265.2202 15.06426356143840","OBJECT_TYPE":"PAYLOAD","OBJECT_NAME":"STARLINK-1577","APOAPSIS":"548.145","FILE":"3855951","MEAN_MOTION":"15.06426356","EPHEMERIS_TYPE":"0","PERIAPSIS":"546.121","EPOCH":"2023-03-09T18:09:07.088256","BSTAR":"0.00243920000000","INCLINATION":"53.0558","TIME_SYSTEM":"UTC","CLASSIFICATION_TYPE":"U","MEAN_ELEMENT_THEORY":"SGP4","PERIOD":"95.590","LAUNCH_DATE":"2020-08-07","REV_AT_EPOCH":"14384","COUNTRY_CODE":"US","RCS_SIZE":"LARGE","RA_OF_ASC_NODE":"356.4566","MEAN_MOTION_DOT":"0.00036264","DECAY_DATE":null,"NORAD_CAT_ID":"46063","MEAN_MOTION_DDOT":"0.0000000000000","ELEMENT_SET_NO":"999","MEAN_ANOMALY":"265.2202","CENTER_NAME":"EARTH","ARG_OF_PERICENTER":"94.8954","OBJECT_ID":"2020-055AN"},{"BSTAR":"0.00267880000000","PERIAPSIS":"546.174","EPOCH":"2023-03-09T18:56:53.975904","CLASSIFICATION_TYPE":"U","TIME_SYSTEM":"UTC","INCLINATION":"53.0544","APOAPSIS":"548.076","OBJECT_NAME":"STARLINK-1583","EPHEMERIS_TYPE":"0","MEAN_MOTION":"15.06428901","FILE":"3855951","TLE_LINE2":"2 46064  53.0544 356.3118 0001373  88.8072 271.3075 15.06428901143859","GP_ID":"227764225","REF_FRAME":"TEME","OBJECT_TYPE":"PAYLOAD","TLE_LINE1":"1 46064U 20055AP  23068.78951361  .00039877  00000-0  26788-2 0  9998","SEMIMAJOR_AXIS":"6925.260","ECCENTRICITY":"0.00013730","SITE":"AFETR","ARG_OF_PERICENTER":"88.8072","CENTER_NAME":"EARTH","MEAN_ANOMALY":"271.3075","OBJECT_ID":"2020-055AP","ELEMENT_SET_NO":"999","MEAN_MOTION_DDOT":"0.0000000000000","NORAD_CAT_ID":"46064","DECAY_DATE":null,"RA_OF_ASC_NODE":"356.3118","MEAN_MOTION_DOT":"0.00039877","RCS_SIZE":"LARGE","PERIOD":"95.590","MEAN_ELEMENT_THEORY":"SGP4","COUNTRY_CODE":"US","LAUNCH_DATE":"2020-08-07","REV_AT_EPOCH":"14385"},{"ARG_OF_PERICENTER":"105.7118","CENTER_NAME":"EARTH","MEAN_ANOMALY":"254.3978","OBJECT_ID":"2020-055AQ","NORAD_CAT_ID":"46065","MEAN_MOTION_DDOT":"0.0000000000000","ELEMENT_SET_NO":"999","DECAY_DATE":null,"MEAN_MOTION_DOT":"0.00032282","RA_OF_ASC_NODE":"335.7376","RCS_SIZE":"LARGE","MEAN_ELEMENT_THEORY":"SGP4","PERIOD":"95.589","COUNTRY_CODE":"US","LAUNCH_DATE":"2020-08-07","REV_AT_EPOCH":"14413","BSTAR":"0.00217340000000","PERIAPSIS":"546.396","EPOCH":"2023-03-09T21:58:39.453024","CLASSIFICATION_TYPE":"U","TIME_SYSTEM":"UTC","INCLINATION":"53.0534","APOAPSIS":"547.735","OBJECT_NAME":"STARLINK-1515","FILE":"3855951","MEAN_MOTION":"15.06448338","EPHEMERIS_TYPE":"0","TLE_LINE2":"2 46065  53.0534 335.7376 0000967 105.7118 254.3978 15.06448338144135","GP_ID":"227764474","REF_FRAME":"TEME","OBJECT_TYPE":"PAYLOAD","TLE_LINE1":"1 46065U 20055AQ  23068.91573441  .00032282  00000-0  21734-2 0  9992","SEMIMAJOR_AXIS":"6925.200","SITE":"AFETR","ECCENTRICITY":"0.00009670"},{"TLE_LINE1":"1 46066U 20055AR  23068.92035489  .00033032  00000-0  22243-2 0  9999","SEMIMAJOR_AXIS":"6925.255","ECCENTRICITY":"0.00007990","SITE":"AFETR","TLE_LINE2":"2 46066  53.0533 335.7234 0000799 110.4328 249.6747 15.06430490144149","GP_ID":"227765220","REF_FRAME":"TEME","OBJECT_TYPE":"PAYLOAD","APOAPSIS":"547.673","OBJECT_NAME":"STARLINK-1525","FILE":"3855951","MEAN_MOTION":"15.06430490","EPHEMERIS_TYPE":"0","BSTAR":"0.00222430000000","PERIAPSIS":"546.567","EPOCH":"2023-03-09T22:05:18.662496","CLASSIFICATION_TYPE":"U","TIME_SYSTEM":"UTC","INCLINATION":"53.0533","MEAN_ELEMENT_THEORY":"SGP4","PERIOD":"95.590","COUNTRY_CODE":"US","REV_AT_EPOCH":"14414","LAUNCH_DATE":"2020-08-07","RA_OF_ASC_NODE":"335.7234","MEAN_MOTION_DOT":"0.00033032","RCS_SIZE":"LARGE","MEAN_MOTION_DDOT":"0.0000000000000","NORAD_CAT_ID":"46066","ELEMENT_SET_NO":"999","DECAY_DATE":null,"CENTER_NAME":"EARTH","ARG_OF_PERICENTER":"110.4328","MEAN_ANOMALY":"249.6747","OBJECT_ID":"2020-055AR"},{"OBJECT_ID":"2020-055AS","CENTER_NAME":"EARTH","ARG_OF_PERICENTER":"89.7162","MEAN_ANOMALY":"270.3919","MEAN_MOTION_DDOT":"0.0000000000000","NORAD_CAT_ID":"46067","ELEMENT_SET_NO":"999","DECAY_DATE":null,"MEAN_MOTION_DOT":"0.00012483","RA_OF_ASC_NODE":"335.6935","RCS_SIZE":"LARGE","COUNTRY_CODE":"US","LAUNCH_DATE":"2020-08-07","REV_AT_EPOCH":"14415","MEAN_ELEMENT_THEORY":"SGP4","PERIOD":"95.591","CLASSIFICATION_TYPE":"U","TIME_SYSTEM":"UTC","INCLINATION":"53.0541","BSTAR":"0.00085506000000","PERIAPSIS":"546.611","EPOCH":"2023-03-09T22:09:15.293088","FILE":"3855951","MEAN_MOTION":"15.06416539","EPHEMERIS_TYPE":"0","APOAPSIS":"547.715","OBJECT_NAME":"STARLINK-1529","OBJECT_TYPE":"PAYLOAD","TLE_LINE2":"2 46067  53.0541 335.6935 0000797  89.7162 270.3919 15.06416539144159","GP_ID":"227765974","REF_FRAME":"TEME","TLE_LINE1":"1 46067U 20055AS  23068.92309367  .00012483  00000-0  85506-3 0  9998","SEMIMAJOR_AXIS":"6925.298","SITE":"AFETR","ECCENTRICITY":"0.00007970"}];
